NORAD_CAT_ID,OBJECT_NAME,OBJECT_TYPE,EPOCH,MEAN_MOTION,ECCENTRICITY,INCLINATION,RA_OF_ASC_NODE,ARG_OF_PERICENTER,MEAN_ANOMALY,BSTAR,MEAN_MOTION_DOT,MEAN_MOTION_DDOT,TLE_LINE0,TLE_LINE1,TLE_LINE2,SEMIMAJOR_AXIS,PERIOD,APOGEE,PERIGEE,DECAYED
53793.0,STARLINK-4728,PAYLOAD,2024-07-19 21:41:45,15.08833961,0.0001377,53.2164,77.4858,75.3111,284.8034,2.5029e-05,1.1e-06,0.0,0 STARLINK-4728,1 53793U 22111W   24201.90400160  .00000110  00000-0  25029-4 0  9997,2 53793  53.2164  77.4858 0001377  75.3111 284.8034 15.08833961103440,6917.899,95.438,540.716,538.811,0.0
53793.0,STARLINK-4728,PAYLOAD,2024-07-20 00:52:31,15.08838224,0.0001428,53.2167,76.8905,79.5476,280.5677,0.00014461,2.014e-05,0.0,0 STARLINK-4728,1 53793U 22111W   24202.03648098  .00002014  00000-0  14461-3 0  9998,2 53793  53.2167  76.8905 0001428  79.5476 280.5677 15.08838224102662,6917.886,95.438,540.739,538.763,0.0
53793.0,STARLINK-4728,PAYLOAD,2024-07-20 21:32:32,15.08841396,0.0001048,53.2147,73.0247,91.1009,269.0103,0.00017936,2.568e-05,0.0,0 STARLINK-4728,1 53793U 22111W   24202.89760197  .00002568  00000-0  17936-3 0  9991,2 53793  53.2147  73.0247 0001048  91.1009 269.0103 15.08841396103591,6917.876,95.437,540.466,539.016,0.0
53793.0,STARLINK-4728,PAYLOAD,2024-07-20 23:07:55,15.08843653,0.0001132,53.2156,72.7285,98.8356,261.2764,0.00023604,3.471e-05,0.0,0 STARLINK-4728,1 53793U 22111W   24202.96384099  .00003471  00000-0  23604-3 0  9995,2 53793  53.2156  72.7285 0001132  98.8356 261.2764 15.08843653103609,6917.869,95.437,540.517,538.951,0.0
53793.0,STARLINK-4728,PAYLOAD,2024-07-21 21:23:19,15.08846685,0.0001099,53.2154,68.562,102.1463,257.9653,0.00020245,2.936e-05,0.0,0 STARLINK-4728,1 53793U 22111W   24203.89119951  .00002936  00000-0  20245-3 0  9994,2 53793  53.2154  68.5620 0001099 102.1463 257.9653 15.08846685102946,6917.86,95.437,540.485,538.965,0.0
53793.0,STARLINK-4728,PAYLOAD,2024-07-23 14:43:21,15.08846071,0.000138,53.2165,60.8305,79.7948,280.3199,0.00019668,2.844e-05,0.0,0 STARLINK-4728,1 53793U 22111W   24205.61344062  .00002844  00000-0  19668-3 0  9994,2 53793  53.2165  60.8305 0001380  79.7948 280.3199 15.08846071104006,6917.862,95.437,540.681,538.772,0.0
53793.0,STARLINK-4728,PAYLOAD,2024-07-24 14:34:08,15.08831736,0.0001232,53.2163,56.3689,102.2663,257.8467,-4.1419e-05,-9.47e-06,0.0,0 STARLINK-4728,1 53793U 22111W   24206.60704662 -.00000947  00000-0 -41419-4 0  9994,2 53793  53.2163  56.3689 0001232 102.2663 257.8467 15.08831736103357,6917.906,95.438,540.623,538.918,0.0
53793.0,STARLINK-4728,PAYLOAD,2024-07-25 12:49:32,15.08838196,0.0001178,53.2164,52.203,112.0744,248.0373,7.2215e-05,8.62e-06,0.0,0 STARLINK-4728,1 53793U 22111W   24207.53440633  .00000862  00000-0  72215-4 0  9994,2 53793  53.2164  52.2030 0001178 112.0744 248.0373 15.08838196103491,6917.886,95.438,540.566,538.936,0.0
53793.0,STARLINK-4728,PAYLOAD,2024-07-26 06:18:46,15.08848115,9.1e-05,53.2171,48.9397,84.2511,275.8585,0.00013061,1.792e-05,0.0,0 STARLINK-4728,1 53793U 22111W   24208.26304218  .00001792  00000-0  13061-3 0  9999,2 53793  53.2171  48.9397 0000910  84.2511 275.8585 15.08848115104409,6917.856,95.437,540.35,539.091,0.0
53793.0,STARLINK-4728,PAYLOAD,2024-07-26 15:51:06,15.08842996,0.0001164,53.2185,47.1584,67.2517,292.8599,8.8579e-05,1.122e-05,0.0,0 STARLINK-4728,1 53793U 22111W   24208.66048726  .00001122  00000-0  88579-4 0  9996,2 53793  53.2185  47.1584 0001164  67.2517 292.8599 15.08842996103664,6917.871,95.437,540.541,538.931,0.0
53793.0,STARLINK-4728,PAYLOAD,2024-07-26 22:12:38,15.08841883,0.0001577,53.2162,45.9649,87.6836,272.4336,6.3927e-05,7.3e-06,0.0,0 STARLINK-4728,1 53793U 22111W   24208.92544725  .00000730  00000-0  63927-4 0  9999,2 53793  53.2162  45.9649 0001577  87.6836 272.4336 15.08841883104506,6917.875,95.437,540.831,538.649,0.0
53793.0,STARLINK-4728,PAYLOAD,2024-07-27 06:09:32,15.0886062,0.000112,53.2197,44.4746,64.3901,295.7207,0.00018298,2.627e-05,0.0,0 STARLINK-4728,1 53793U 22111W   24209.25663055  .00002627  00000-0  18298-3 0  9991,2 53793  53.2197  44.4746 0001120  64.3901 295.7207 15.08860620103756,6917.817,95.436,540.457,538.908,0.0
53793.0,STARLINK-4728,PAYLOAD,2024-07-27 12:31:09,15.08810453,7.62e-05,53.2214,43.2863,76.9628,283.1449,-0.00024234,-4.139e-05,0.0,0 STARLINK-4728,1 53793U 22111W   24209.52163385 -.00004139  00000-0 -24234-3 0  9991,2 53793  53.2214  43.2863 0000762  76.9628 283.1449 15.08810453103791,6917.971,95.439,540.363,539.309,0.0
53793.0,STARLINK-4728,PAYLOAD,2024-07-27 22:03:26,15.08825696,0.0001556,53.2181,41.504,84.3383,275.7787,-3.3894e-05,-8.27e-06,0.0,0 STARLINK-4728,1 53793U 22111W   24209.91906187 -.00000827  00000-0 -33894-4 0  9992,2 53793  53.2181  41.5040 0001556  84.3383 275.7787 15.08825696104658,6917.924,95.438,540.866,538.713,0.0
53793.0,STARLINK-4728,PAYLOAD,2024-07-28 12:21:54,15.08841034,0.0001463,53.2185,38.8288,83.9694,276.1465,1.9848e-07,-2.85e-06,0.0,0 STARLINK-4728,1 53793U 22111W   24210.51521319 -.00000285  00000-0  19848-6 0  9992,2 53793  53.2185  38.8288 0001463  83.9694 276.1465 15.08841034103945,6917.877,95.437,540.754,538.73,0.0
53793.0,STARLINK-4728,PAYLOAD,2024-07-28 18:43:26,15.08842166,0.0001306,53.2175,37.6392,88.5211,271.5931,5.4821e-05,5.85e-06,0.0,0 STARLINK-4728,1 53793U 22111W   24210.78017020  .00000585  00000-0  54821-4 0  9990,2 53793  53.2175  37.6392 0001306  88.5211 271.5931 15.08842166104786,6917.874,95.437,540.642,538.835,0.0
53793.0,STARLINK-4728,PAYLOAD,2024-07-29 20:09:36,15.08849382,0.0001282,53.2173,32.8802,89.4513,270.6626,0.00041206,6.278e-05,0.0,0 STARLINK-4728,1 53793U 22111W   24211.84000992  .00006278  00000-0  41206-3 0  9995,2 53793  53.2173  32.8802 0001282  89.4513 270.6626 15.08849382104143,6917.852,95.437,540.604,538.83,0.0
53793.0,STARLINK-4728,PAYLOAD,2024-07-30 12:03:28,15.08850877,0.0001525,53.2182,29.9078,84.9819,275.1347,0.00028043,4.179e-05,0.0,0 STARLINK-4728,1 53793U 22111W   24212.50240897  .00004179  00000-0  28043-3 0  9991,2 53793  53.2182  29.9078 0001525  84.9819 275.1347 15.08850877105045,6917.847,95.437,540.767,538.657,0.0
53793.0,STARLINK-4728,PAYLOAD,2024-07-30 18:25:00,15.08850521,0.0001533,53.2183,28.7182,84.9881,275.1286,0.0002379,3.501e-05,0.0,0 STARLINK-4728,1 53793U 22111W   24212.76736793  .00003501  00000-0  23790-3 0  9996,2 53793  53.2183  28.7182 0001533  84.9881 275.1286 15.08850521104280,6917.848,95.437,540.774,538.653,0.0
53793.0,STARLINK-4728,PAYLOAD,2024-07-31 15:05:01,15.08839042,0.0001247,53.2183,24.8497,92.8596,267.2538,5.0601e-05,5.18e-06,0.0,0 STARLINK-4728,1 53793U 22111W   24213.62849059  .00000518  00000-0  50601-4 0  9999,2 53793  53.2183  24.8497 0001247  92.8596 267.2538 15.08839042105210,6917.883,95.438,540.611,538.886,0.0
53793.0,STARLINK-4728,PAYLOAD,2024-07-31 21:26:34,15.08828387,0.0001318,53.2181,23.6606,108.0214,252.0922,-0.00011102,-2.054e-05,0.0,0 STARLINK-4728,1 53793U 22111W   24213.89345625 -.00002054  00000-0 -11102-3 0  9999,2 53793  53.2181  23.6606 0001318 108.0214 252.0922 15.08828387104457,6917.916,95.438,540.693,538.869,0.0
53793.0,STARLINK-4728,PAYLOAD,2024-08-01 11:45:02,15.08839821,9.06e-05,53.2168,20.9896,68.4195,291.6893,0.00015004,2.101e-05,0.0,0 STARLINK-4728,1 53793U 22111W   24214.48961376  .00002101  00000-0  15004-3 0  9998,2 53793  53.2168  20.9896 0000906  68.4195 291.6893 15.08839821104543,6917.881,95.438,540.373,539.119,0.0
53793.0,STARLINK-4728,PAYLOAD,2024-08-01 21:17:20,15.08859231,8.71e-05,53.2171,19.1994,102.0474,258.0616,0.00035375,5.35e-05,0.0,0 STARLINK-4728,1 53793U 22111W   24214.88704075  .00005350  00000-0  35375-3 0  9995,2 53793  53.2171  19.1994 0000871 102.0474 258.0616 15.08859231104606,6917.822,95.436,540.289,539.084,0.0
53793.0,STARLINK-4728,PAYLOAD,2024-08-02 14:46:36,15.08819125,0.0001204,53.2174,15.9334,84.0913,276.0216,-0.00015809,-2.801e-05,0.0,0 STARLINK-4728,1 53793U 22111W   24215.61569986 -.00002801  00000-0 -15809-3 0  9997,2 53793  53.2174  15.9334 0001204  84.0913 276.0216 15.08819125105514,6917.944,95.439,540.642,538.976,0.0
53793.0,STARLINK-4728,PAYLOAD,2024-08-02 21:08:08,15.08827725,0.0001584,53.2182,14.7425,98.855,261.2622,4.6009e-05,4.44e-06,0.0,0 STARLINK-4728,1 53793U 22111W   24215.88065832  .00000444  00000-0  46009-4 0  9993,2 53793  53.2182  14.7425 0001584  98.8550 261.2622 15.08827725104759,6917.918,95.438,540.879,538.687,0.0
53793.0,STARLINK-4728,PAYLOAD,2024-08-03 03:29:41,15.08835359,0.0001653,53.2186,13.5532,89.0066,271.1116,-4.6675e-05,-1.031e-05,0.0,0 STARLINK-4728,1 53793U 22111W   24216.14561397 -.00001031  00000-0 -46675-4 0  9994,2 53793  53.2186  13.5532 0001653  89.0066 271.1116 15.08835359104794,6917.895,95.438,540.903,538.616,0.0
53793.0,STARLINK-4728,PAYLOAD,2024-08-03 14:37:23,15.08838029,0.0001709,53.2188,11.4714,96.714,263.4047,-3.8131e-05,-8.95e-06,0.0,0 STARLINK-4728,1 53793U 22111W   24216.60929493 -.00000895  00000-0 -38131-4 0  9995,2 53793  53.2188  11.4714 0001709  96.7140 263.4047 15.08838029105666,6917.886,95.438,540.934,538.569,0.0
53793.0,STARLINK-4728,PAYLOAD,2024-08-03 19:23:32,15.08843864,0.0001751,53.2189,10.5798,90.9844,269.1348,0.00032819,4.939e-05,0.0,0 STARLINK-4728,1 53793U 22111W   24216.80801487  .00004939  00000-0  32819-3 0  9996,2 53793  53.2189  10.5798 0001751  90.9844 269.1348 15.08843864105696,6917.869,95.437,540.945,538.522,0.0
53793.0,STARLINK-4728,PAYLOAD,2024-08-04 03:20:28,15.08850982,0.0001751,53.2187,9.0927,90.5171,269.6021,0.00078651,0.00012255,0.0,0 STARLINK-4728,1 53793U 22111W   24217.13921501  .00012255  00000-0  78651-3 0  9997,2 53793  53.2187   9.0927 0001751  90.5171 269.6021 15.08850982104949,6917.847,95.437,540.923,538.501,0.0
53793.0,STARLINK-4728,PAYLOAD,2024-08-04 14:28:10,15.08842289,0.0001502,53.218,7.0109,100.9575,259.1586,0.00034406,5.192e-05,0.0,0 STARLINK-4728,1 53793U 22111W   24217.60289717  .00005192  00000-0  34406-3 0  9997,2 53793  53.2180   7.0109 0001502 100.9575 259.1586 15.08842289105818,6917.873,95.437,540.777,538.699,0.0
